[{"OBJECT_NAME":"STARLINK-5863","OBJECT_ID":"2023-037J","EPOCH":"2026-03-09T22:17:42.236448","MEAN_MOTION":14.98333801,"ECCENTRICITY":0.00023449,"INCLINATION":69.9995,"RA_OF_ASC_NODE":303.8279,"ARG_OF_PERICENTER":267.7645,"MEAN_ANOMALY":92.3246,"EPHEMERIS_TYPE":0,"CLASSIFICATION_TYPE":"U","NORAD_CAT_ID":55922,"ELEMENT_SET_NO":999,"REV_AT_EPOCH":16352,"BSTAR":-8.3205167e-5,"MEAN_MOTION_DOT":-1.086e-5,"MEAN_MOTION_DDOT":0},{"OBJECT_NAME":"CZ-6A DEB","OBJECT_ID":"2022-151ABP","EPOCH":"2026-03-09T02:32:23.810496","MEAN_MOTION":14.71549219,"ECCENTRICITY":0.01185056,"INCLINATION":98.446,"RA_OF_ASC_NODE":118.653,"ARG_OF_PERICENTER":160.9609,"MEAN_ANOMALY":199.6084,"EPHEMERIS_TYPE":0,"CLASSIFICATION_TYPE":"U","NORAD_CAT_ID":56247,"ELEMENT_SET_NO":999,"REV_AT_EPOCH":16307,"BSTAR":0.0018761097,"MEAN_MOTION_DOT":0.00012972,"MEAN_MOTION_DDOT":0}]
